{"type": "FeatureCollection", "features": [ {"type": "Feature", "properties": {"norad_id": 44476, "name": "INTELSAT 39 (IS-39)", "group": "intelsat", "lat": -0.008925865286996851, "lon": -63.80862786852562, "alt_km": 35786.07228609678, "timestamp": "2025-12-02T10:50:46.941414+00:00", "meta": {"OBJECT_NAME": "INTELSAT 39 (IS-39)", "OBJECT_ID": "2019-049B", "EPOCH": "2025-12-01T21:58:38.459424", "MEAN_MOTION": 1.00276327, "ECCENTRICITY": 5.57e-05, "INCLINATION": 0.0163, "RA_OF_ASC_NODE": 308.3282, "ARG_OF_PERICENTER": 224.0067, "MEAN_ANOMALY": 290.3068, "EPHEMERIS_TYPE": 0, "CLASSIFICATION_TYPE": "U", "NORAD_CAT_ID": 44476, "ELEMENT_SET_NO": 999, "REV_AT_EPOCH": 2315, "BSTAR": 0, "MEAN_MOTION_DOT": 5.4e-07, "MEAN_MOTION_DDOT": 0}, "tle": {"line1": "1 44476U 19049B   25335.91572291  .00000054  00000+0  00000+0 0  9999", "line2": "2 44476   0.0163 308.3282 0000557 224.0067 290.3068  1.00276327 23158"}}, "geometry": {"type": "Point", "coordinates": [-63.80862786852562, -0.008925865286996851]}}, {"type": "Feature", "properties": {"norad_id": 46114, "name": "GALAXY 30 (G-30)", "group": "intelsat", "lat": 0.0067676566130955036, "lon": 109.21090425959075, "alt_km": 35793.61735633036, "timestamp": "2025-12-02T10:50:46.941426+00:00", "meta": {"OBJECT_NAME": "GALAXY 30 (G-30)", "OBJECT_ID": "2020-056C", "EPOCH": "2025-12-01T20:42:04.934304", "MEAN_MOTION": 1.0027242, "ECCENTRICITY": 0.0002369, "INCLINATION": 0.0148, "RA_OF_ASC_NODE": 292.7027, "ARG_OF_PERICENTER": 317.0993, "MEAN_ANOMALY": 6.6971, "EPHEMERIS_TYPE": 0, "CLASSIFICATION_TYPE": "U", "NORAD_CAT_ID": 46114, "ELEMENT_SET_NO": 999, "REV_AT_EPOCH": 1931, "BSTAR": 0, "MEAN_MOTION_DOT": 5.8e-07, "MEAN_MOTION_DDOT": 0}, "tle": {"line1": "1 46114U 20056C   25335.86255711  .00000058  00000+0  00000+0 0  9993", "line2": "2 46114   0.0148 292.7027 0002369 317.0993   6.6971  1.00272420 19313"}}, "geometry": {"type": "Point", "coordinates": [109.21090425959075, 0.0067676566130955036]}}, {"type": "Feature", "properties": {"norad_id": 54026, "name": "GALAXY 33 (G-33)", "group": "intelsat", "lat": 0.02264099836172881, "lon": 101.21794041933589, "alt_km": 35792.58541914857, "timestamp": "2025-12-02T10:50:46.941438+00:00", "meta": {"OBJECT_NAME": "GALAXY 33 (G-33)", "OBJECT_ID": "2022-128A", "EPOCH": "2025-12-02T02:52:48.158976", "MEAN_MOTION": 1.00272309, "ECCENTRICITY": 0.0001926, "INCLINATION": 0.0128, "RA_OF_ASC_NODE": 327.2382, "ARG_OF_PERICENTER": 278.9194, "MEAN_ANOMALY": 95.2787, "EPHEMERIS_TYPE": 0, "CLASSIFICATION_TYPE": "U", "NORAD_CAT_ID": 54026, "ELEMENT_SET_NO": 999, "REV_AT_EPOCH": 1176, "BSTAR": 0, "MEAN_MOTION_DOT": 1e-06, "MEAN_MOTION_DDOT": 0}, "tle": {"line1": "1 54026U 22128A   25336.12000184  .00000100  00000+0  00000+0 0  9996", "line2": "2 54026   0.0128 327.2382 0001926 278.9194  95.2787  1.00272309 11762"}}, "geometry": {"type": "Point", "coordinates": [101.21794041933589, 0.02264099836172881]}}, {"type": "Feature", "properties": {"norad_id": 54027, "name": "GALAXY 34 (G-34)", "group": "intelsat", "lat": 0.0185761170967661, "lon": 105.21518068932221, "alt_km": 35790.423119893116, "timestamp": "2025-12-02T10:50:46.941450+00:00", "meta": {"OBJECT_NAME": "GALAXY 34 (G-34)", "OBJECT_ID": "2022-128B", "EPOCH": "2025-12-01T20:45:55.897056", "MEAN_MOTION": 1.00272949, "ECCENTRICITY": 0.0001428, "INCLINATION": 0.015, "RA_OF_ASC_NODE": 316.5626, "ARG_OF_PERICENTER": 289.8338, "MEAN_ANOMALY": 7.0638, "EPHEMERIS_TYPE": 0, "CLASSIFICATION_TYPE": "U", "NORAD_CAT_ID": 54027, "ELEMENT_SET_NO": 999, "REV_AT_EPOCH": 1193, "BSTAR": 0, "MEAN_MOTION_DOT": 8e-07, "MEAN_MOTION_DDOT": 0}, "tle": {"line1": "1 54027U 22128B   25335.86523029  .00000080  00000+0  00000+0 0  9992", "line2": "2 54027   0.0150 316.5626 0001428 289.8338   7.0638  1.00272949 11933"}}, "geometry": {"type": "Point", "coordinates": [105.21518068932221, 0.0185761170967661]}}, {"type": "Feature", "properties": {"norad_id": 54243, "name": "GALAXY 31 (G-31)", "group": "intelsat", "lat": 0.01636515753040616, "lon": 113.18892119373339, "alt_km": 35793.97681125687, "timestamp": "2025-12-02T10:50:46.941461+00:00", "meta": {"OBJECT_NAME": "GALAXY 31 (G-31)", "OBJECT_ID": "2022-153A", "EPOCH": "2025-12-02T02:56:10.337568", "MEAN_MOTION": 1.00271468, "ECCENTRICITY": 0.0002078, "INCLINATION": 0.0128, "RA_OF_ASC_NODE": 327.051, "ARG_OF_PERICENTER": 299.1464, "MEAN_ANOMALY": 88.0538, "EPHEMERIS_TYPE": 0, "CLASSIFICATION_TYPE": "U", "NORAD_CAT_ID": 54243, "ELEMENT_SET_NO": 999, "REV_AT_EPOCH": 515, "BSTAR": 0, "MEAN_MOTION_DOT": 0, "MEAN_MOTION_DDOT": 0}, "tle": {"line1": "1 54243U 22153A   25336.12234187  .00000000  00000+0  00000+0 0  9996", "line2": "2 54243   0.0128 327.0510 0002078 299.1464  88.0538  1.00271468  5153"}}, "geometry": {"type": "Point", "coordinates": [113.18892119373339, 0.01636515753040616]}}, {"type": "Feature", "properties": {"norad_id": 54244, "name": "GALAXY 32 (G-32)", "group": "intelsat", "lat": -0.004468331071302783, "lon": 143.21967050143118, "alt_km": 35796.04933458549, "timestamp": "2025-12-02T10:50:46.941472+00:00", "meta": {"OBJECT_NAME": "GALAXY 32 (G-32)", "OBJECT_ID": "2022-153B", "EPOCH": "2025-12-01T21:56:31.606944", "MEAN_MOTION": 1.00270413, "ECCENTRICITY": 0.0002407, "INCLINATION": 0.0099, "RA_OF_ASC_NODE": 319.0014, "ARG_OF_PERICENTER": 345.1188, "MEAN_ANOMALY": 5.0458, "EPHEMERIS_TYPE": 0, "CLASSIFICATION_TYPE": "U", "NORAD_CAT_ID": 54244, "ELEMENT_SET_NO": 999, "REV_AT_EPOCH": 1116, "BSTAR": 0, "MEAN_MOTION_DOT": -1.53e-06, "MEAN_MOTION_DDOT": 0}, "tle": {"line1": "1 54244U 22153B   25335.91425471 -.00000153  00000+0  00000+0 0  9991", "line2": "2 54244   0.0099 319.0014 0002407 345.1188   5.0458  1.00270413 11169"}}, "geometry": {"type": "Point", "coordinates": [143.21967050143118, -0.004468331071302783]}}, {"type": "Feature", "properties": {"norad_id": 54741, "name": "GALAXY 35 (G-35)", "group": "intelsat", "lat": -0.016510060080452926, "lon": 141.10739922955628, "alt_km": 35791.40921085352, "timestamp": "2025-12-02T10:50:46.941484+00:00", "meta": {"OBJECT_NAME": "GALAXY 35 (G-35)", "OBJECT_ID": "2022-170A", "EPOCH": "2025-12-02T03:04:09.570720", "MEAN_MOTION": 1.00270332, "ECCENTRICITY": 0.0002644, "INCLINATION": 0.0153, "RA_OF_ASC_NODE": 282.4617, "ARG_OF_PERICENTER": 334.7086, "MEAN_ANOMALY": 127.0195, "EPHEMERIS_TYPE": 0, "CLASSIFICATION_TYPE": "U", "NORAD_CAT_ID": 54741, "ELEMENT_SET_NO": 999, "REV_AT_EPOCH": 1091, "BSTAR": 0, "MEAN_MOTION_DOT": -1.41e-06, "MEAN_MOTION_DDOT": 0}, "tle": {"line1": "1 54741U 22170A   25336.12788855 -.00000141  00000+0  00000+0 0  9991", "line2": "2 54741   0.0153 282.4617 0002644 334.7086 127.0195  1.00270332 10913"}}, "geometry": {"type": "Point", "coordinates": [141.10739922955628, -0.016510060080452926]}}, {"type": "Feature", "properties": {"norad_id": 54742, "name": "GALAXY 36 (G-36)", "group": "intelsat", "lat": -0.02423905814629818, "lon": 145.22365048795, "alt_km": 35786.794351721546, "timestamp": "2025-12-02T10:50:46.941497+00:00", "meta": {"OBJECT_NAME": "GALAXY 36 (G-36)", "OBJECT_ID": "2022-170B", "EPOCH": "2025-12-02T03:05:16.965312", "MEAN_MOTION": 1.00270615, "ECCENTRICITY": 5.51e-05, "INCLINATION": 0.0199, "RA_OF_ASC_NODE": 260.0552, "ARG_OF_PERICENTER": 344.0203, "MEAN_ANOMALY": 144.4907, "EPHEMERIS_TYPE": 0, "CLASSIFICATION_TYPE": "U", "NORAD_CAT_ID": 54742, "ELEMENT_SET_NO": 999, "REV_AT_EPOCH": 1079, "BSTAR": 0, "MEAN_MOTION_DOT": -1.64e-06, "MEAN_MOTION_DDOT": 0}, "tle": {"line1": "1 54742U 22170B   25336.12866858 -.00000164  00000+0  00000+0 0  9997", "line2": "2 54742   0.0199 260.0552 0000551 344.0203 144.4907  1.00270615 10798"}}, "geometry": {"type": "Point", "coordinates": [145.22365048795, -0.02423905814629818]}}, {"type": "Feature", "properties": {"norad_id": 57493, "name": "GALAXY 37 (G-37)", "group": "intelsat", "lat": 0.009241442561734446, "lon": 107.21506300050159, "alt_km": 35794.61762566431, "timestamp": "2025-12-02T10:50:46.941508+00:00", "meta": {"OBJECT_NAME": "GALAXY 37 (G-37)", "OBJECT_ID": "2023-112A", "EPOCH": "2025-12-01T21:46:02.612352", "MEAN_MOTION": 1.00271443, "ECCENTRICITY": 0.000237, "INCLINATION": 0.0198, "RA_OF_ASC_NODE": 293.7772, "ARG_OF_PERICENTER": 321.1427, "MEAN_ANOMALY": 15.6168, "EPHEMERIS_TYPE": 0, "CLASSIFICATION_TYPE": "U", "NORAD_CAT_ID": 57493, "ELEMENT_SET_NO": 999, "REV_AT_EPOCH": 856, "BSTAR": 0, "MEAN_MOTION_DOT": 6.9e-07, "MEAN_MOTION_DDOT": 0}, "tle": {"line1": "1 57493U 23112A   25335.90697468  .00000069  00000+0  00000+0 0  9997", "line2": "2 57493   0.0198 293.7772 0002370 321.1427  15.6168  1.00271443  8565"}}, "geometry": {"type": "Point", "coordinates": [107.21506300050159, 0.009241442561734446]}}]}